EYESAT-1 (AO-27)        
1 22825U 93061C   18016.17929701 -.00000005  00000-0  16005-4 0  9992
2 22825  98.8430 349.7050 0009455  72.1033 288.1179 14.30019376267847
CUTE-1 (CO-55)          
1 27844U 03031E   18016.89943168  .00000056  00000-0  44990-4 0  9997
2 27844  98.6883  27.7772 0010830  89.7516 270.4903 14.22089026754699
CUBESAT XI-IV (CO-57)   
1 27848U 03031J   18016.74644009  .00000037  00000-0  36584-4 0  9996
2 27848  98.6973  27.9712 0010733  99.1849 261.0543 14.21696444754542
CUBESAT XI 5            
1 28895U 05043F   18015.94980097  .00000120  00000-0  31809-4 0  9993
2 28895  97.8861 173.7719 0016765 186.2992 173.8003 14.63498176651373
CUTE-1.7+APD II (CO-65) 
1 32785U 08021C   18016.88786098  .00000211  00000-0  28520-4 0  9991
2 32785  97.5535  36.2443 0013250 173.7625 186.3759 14.88046554526675
COMPASS-1               
1 32787U 08021E   18016.11212542  .00000320  00000-0  36023-4 0  9995
2 32787  97.5402  45.6369 0013492 142.2810 217.9359 14.92885568527260
AAUSAT-II               
1 32788U 08021F   18016.54897477  .00000500  00000-0  51703-4 0  9991
2 32788  97.5374  49.2575 0013085 132.5269 227.7059 14.94188537527536
DELFI-C3 (DO-64)        
1 32789U 08021G   18015.94523170  .00000939  00000-0  69099-4 0  9994
2 32789  97.5338  74.4813 0014225  97.6357 262.6486 15.05678988528774
CANX-2                  
1 32790U 08021H   18016.10085502  .00000200  00000-0  27516-4 0  9996
2 32790  97.5531  33.7417 0013777 178.5435 181.5824 14.87756874526498
SEEDS II (CO-66)        
1 32791U 08021J   18016.01319907  .00000417  00000-0  48127-4 0  9997
2 32791  97.5465  40.3979 0013958 159.5330 200.6451 14.90445445526847
SWISSCUBE               
1 35932U 09051B   18015.33934998  .00000112  00000-0  36314-4 0  9995
2 35932  98.5218 163.0327 0006864 325.9909  34.0847 14.56110768441194
BEESAT                  
1 35933U 09051C   18016.88939312  .00000088  00000-0  30760-4 0  9993
2 35933  98.5260 166.0652 0005235 338.2013  21.8961 14.56220137441520
ITUPSAT 1               
1 35935U 09051E   18016.85896918  .00000063  00000-0  25616-4 0  9993
2 35935  98.5372 166.2887 0007446 329.0876  30.9881 14.55403093441311
TISAT 1                 
1 36799U 10035E   18016.42068479  .00000309  00000-0  37612-4 0  9994
2 36799  98.0847 148.8451 0012008 353.1060   6.9990 14.90668638407546
M-CUBED & EXP-1 PRIME   
1 37855U 11061F   18016.55010744  .00000781  00000-0  48248-4 0  9995
2 37855 101.7226   1.4988 0177907 170.8061 189.6480 15.03985677338857
HORYU 2                 
1 38340U 12025D   18016.51179177  .00000212  00000-0  39319-4 0  9996
2 38340  98.3745  32.9568 0011081 339.4368  20.6392 14.75484514304749
STRAND-1                
1 39090U 13009E   18015.82917031  .00000036  00000-0  27999-4 0  9999
2 39090  98.5336 224.0609 0009842  35.3449 324.8387 14.35006830255974
BRITE-AUSTRIA           
1 39091U 13009F   18015.83509463  .00000026  00000-0  24308-4 0  9997
2 39091  98.5302 223.3879 0011248  41.8413 318.3630 14.35056868255981
UNIBRITE                
1 39092U 13009G   18016.55034615  .00000009  00000-0  18368-4 0  9990
2 39092  98.5313 223.7672 0010013  34.3144 325.8687 14.34931205256078
AIST-2                  
1 39133U 13015D   18016.89344547  .00000071  00000-0  17648-4 0  9997
2 39133  64.8744 330.0908 0034353 246.3438 113.4075 15.04471417260446
SOMP                    
1 39134U 13015E   18016.44015266  .00001080  00000-0  61039-4 0  9996
2 39134  64.8630 257.6195 0029239 230.2977 129.5571 15.18718445261855
BEESAT-3                
1 39135U 13015F   18016.15132913  .00000719  00000-0  46774-4 0  9991
2 39135  64.8690 269.9682 0030794 254.4630 105.3095 15.16319469261596
BEESAT-2                
1 39136U 13015G   18016.13439605  .00000723  00000-0  47615-4 0  9998
2 39136  64.8693 272.4055 0030585 253.1850 106.5920 15.15802552261545
NEE-01 PEGASUS          
1 39151U 13018B   18016.77770284  .00000145  00000-0  26286-4 0  9998
2 39151  97.9788 111.9254 0018440  80.2604 280.0689 14.79841204255127
CUBEBUG-1 (CAPITAN BETO)
1 39153U 13018D   18016.22660707  .00000198  00000-0  32953-4 0  9994
2 39153  97.9818 112.3792 0018343  79.9341 280.3939 14.80325186255118
ESTCUBE 1               
1 39161U 13021C   18016.78563876  .00000123  00000-0  27493-4 0  9998
2 39161  98.0176 104.9059 0009567 173.6547 186.4772 14.72009462252178
POPACS 1                
1 39268U 13055D   18015.77264032  .00002855  00000-0  81808-4 0  9997
2 39268  81.0041 146.0047 0642064 315.2399  39.8633 14.32985611222615
POPACS 2                
1 39269U 13055E   18015.83256470  .00001530  00000-0  44053-4 0  9992
2 39269  81.0153 164.8236 0695074   4.1932 356.4658 14.21358144220272
POPACS 3                
1 39270U 13055F   18016.15747468  .00000926  00000-0  27727-4 0  9999
2 39270  81.0172 174.9315 0721944  34.4379 330.1452 14.14179595220861
ZACUBE-1 (TSHEPISOSAT)  
1 39417U 13066B   18015.88117051  .00000228  00000-0  35432-4 0  9999
2 39417  97.6050  52.5132 0057808 294.5344  64.9850 14.80859974224252
WNISAT-1                
1 39423U 13066H   18016.90606858  .00000137  00000-0  36329-4 0  9993
2 39423  97.7075 352.8604 0176544 129.6821 232.0108 14.52915304220264
TRITON-1                
1 39427U 13066M   18016.05853749  .00000215  00000-0  42326-4 0  9997
2 39427  97.6364  22.1246 0114827  27.4530 333.2678 14.67597754222264
GOMX 1                  
1 39430U 13066Q   18016.88131616  .00000234  00000-0  50898-4 0  9998
2 39430  97.6812   4.8062 0153081  88.2256 273.6471 14.59006227221093
BRITE-PL                
1 39431U 13066R   18016.11781509  .00000053  00000-0  21415-4 0  9999
2 39431  97.7370 340.3205 0202585 176.3994 183.8715 14.46901907219245
HUMSAT-D                
1 39433U 13066T   18016.71876853  .00000548  00000-0  59502-4 0  9991
2 39433  97.6261  78.2379 0030125 224.8405 135.0380 14.91719989225846
EAGLE 2                 
1 39436U 13066W   18016.14459923  .00057757  00000-0  84016-3 0  9997
2 39436  97.7121 140.0573 0005493  23.8438 336.3069 15.55564337229527
CUBEBUG-2 (LO-74)       
1 39440U 13066AA  18016.65570592  .00000223  00000-0  38367-4 0  9999
2 39440  97.6109  40.8245 0079777 328.4939  31.1507 14.75598178223573
NEE-02 KRYSAOR          
1 39441U 13066AB  18016.03998930  .00000152  00000-0  28865-4 0  9995
2 39441  97.6101  38.6450 0081355 334.9873  24.7404 14.74724163223357
FUNCUBE-1 (AO-73)       
1 39444U 13066AE  18016.15879578  .00000266  00000-0  39563-4 0  9990
2 39444  97.6064  54.1072 0056943 289.4382  70.0684 14.81622609223146
UWE-3                   
1 39446U 13066AG  18015.85480180  .00000212  00000-0  35103-4 0  9992
2 39446  97.6067  45.9303 0069186 313.3095  46.2360 14.78130536222028
BRITE-TORONTO           
1 40020U 14033L   18016.54088273  .00000073  00000-0  21075-4 0  9999
2 40020  97.8055 242.3651 0087825   8.8792 351.3942 14.66460917191359
DUCHIFAT-1              
1 40021U 14033M   18016.31211095  .00000493  00000-0  56773-4 0  9994
2 40021  97.9179 294.7581 0012295 324.7522  35.2881 14.90170504194339
FLOCK 1C-10             
1 40023U 14033P   18015.96861348  .00000306  00000-0  38425-4 0  9995
2 40023  97.9192 293.2128 0012225 332.5544  27.5076 14.89093048194167
NANOSATC-BR1            
1 40024U 14033Q   18015.80877058  .00000300  00000-0  37529-4 0  9992
2 40024  97.9125 292.7855 0011602 328.7308  31.3218 14.89453482194194
QB50P1                  
1 40025U 14033R   18016.30788858  .00000290  00000-0  37172-4 0  9990
2 40025  97.9094 291.9904 0011871 330.6547  29.4001 14.88617303194192
FLOCK 1C-7              
1 40026U 14033S   18015.81299620  .00000647  00000-0  73262-4 0  9996
2 40026  97.9201 294.0729 0010968 330.7220  29.3327 14.89837986194201
FLOCK 1C-1              
1 40027U 14033T   18016.53252053  .00001196  00000-0  13250-3 0  9996
2 40027  97.9230 294.0675 0012198 328.7146  31.3302 14.89158729194268
POPSAT-HIP-1            
1 40028U 14033U   18016.76203627  .00000247  00000-0  32689-4 0  9999
2 40028  97.9129 292.7837 0013361 327.6892  32.3493 14.88478283194249
FLOCK 1C-2              
1 40029U 14033V   18015.75175914 -.00000005  00000-0  55420-5 0  9997
2 40029  97.9195 293.1272 0013539 326.8670  33.1684 14.89202349194131
FLOCK 1C-4              
1 40031U 14033X   18016.32823095  .00000767  00000-0  87468-4 0  9994
2 40031  97.9197 293.6423 0013676 322.1788  37.8446 14.89024429194206
QB50P2                  
1 40032U 14033Y   18016.35191725  .00000256  00000-0  33825-4 0  9997
2 40032  97.9057 290.9203 0011151 325.9548  34.0952 14.88167235194145
FLOCK 1C-11             
1 40033U 14033Z   18016.37967715  .00000237  00000-0  30250-4 0  9998
2 40033  97.9231 295.6305 0011329 317.6452  42.3879 14.90410121194344
ANTELSAT                
1 40034U 14033AA  18016.20077163  .00000228  00000-0  41714-4 0  9997
2 40034  97.8322 258.1890 0058329 328.7546  31.0201 14.73847169192299
FLOCK 1C-9              
1 40035U 14033AB  18016.00217084  .00000900  00000-0  10104-3 0  9999
2 40035  97.9236 293.8389 0011342 319.3373  40.6974 14.89231290194173
FLOCK 1C-6              
1 40036U 14033AC  18016.81427348  .00000600  00000-0  69202-4 0  9996
2 40036  97.9247 294.9222 0011622 318.6130  41.4170 14.89337987194311
PERSEUS-M2              
1 40037U 14033AD  18016.81258723  .00000099  00000-0  17540-4 0  9996
2 40037  97.9061 289.3700 0013745 330.9561  29.0888 14.86314829194043
FLOCK 1C-5              
1 40038U 14033AE  18016.01845375  .00000150  00000-0  21881-4 0  9995
2 40038  97.9219 293.8821 0013556 318.2542  41.7605 14.89304963194185
PERSEUS-M1              
1 40039U 14033AF  18016.32772306  .00000113  00000-0  19215-4 0  9990
2 40039  97.9063 288.3388 0013540 328.9294  31.1119 14.85936926193925
FLOCK 1C-8              
1 40040U 14033AG  18016.33443703  .00000998  00000-0  10598-3 0  9994
2 40040  97.9275 297.0558 0011880 301.1181  58.8899 14.91266466194396
